{
  "links" : {
    "next" : "https://api.nasa.gov/neo/rest/v1/feed?start_date=2011-11-09&end_date=2011-11-09&detailed=true&api_key=t0TVs3DtDT2H8Oy2Zy8m2eVrNsAVKAexjcZXUckd",
    "prev" : "https://api.nasa.gov/neo/rest/v1/feed?start_date=2011-11-07&end_date=2011-11-07&detailed=true&api_key=t0TVs3DtDT2H8Oy2Zy8m2eVrNsAVKAexjcZXUckd",
    "self" : "https://api.nasa.gov/neo/rest/v1/feed?start_date=2011-11-08&end_date=2011-11-08&detailed=true&api_key=t0TVs3DtDT2H8Oy2Zy8m2eVrNsAVKAexjcZXUckd"
  },
  "element_count" : 9,
  "near_earth_objects" : {
    "2011-11-08" : [ {
      "links" : {
        "self" : "https://api.nasa.gov/neo/rest/v1/neo/3262244?api_key=t0TVs3DtDT2H8Oy2Zy8m2eVrNsAVKAexjcZXUckd"
      },
      "neo_reference_id" : "3262244",
      "name" : "(2004 VB61)",
      "nasa_jpl_url" : "http://ssd.jpl.nasa.gov/sbdb.cgi?sstr=3262244",
      "absolute_magnitude_h" : 22.1,
      "estimated_diameter" : {
        "kilometers" : {
          "estimated_diameter_min" : 0.1010543415,
          "estimated_diameter_max" : 0.2259643771
        },
        "meters" : {
          "estimated_diameter_min" : 101.054341542,
          "estimated_diameter_max" : 225.9643771094
        },
        "miles" : {
          "estimated_diameter_min" : 0.0627922373,
          "estimated_diameter_max" : 0.140407711
        },
        "feet" : {
          "estimated_diameter_min" : 331.5431259047,
          "estimated_diameter_max" : 741.3529669956
        }
      },
      "is_potentially_hazardous_asteroid" : false,
      "close_approach_data" : [ {
        "close_approach_date" : "2011-11-08",
        "epoch_date_close_approach" : 1320739200000,
        "relative_velocity" : {
          "kilometers_per_second" : "6.3457994736",
          "kilometers_per_hour" : "22844.8781048281",
          "miles_per_hour" : "14194.9188424139"
        },
        "miss_distance" : {
          "astronomical" : "0.1974059993",
          "lunar" : "76.7909317017",
          "kilometers" : "29531516",
          "miles" : "18350034"
        },
        "orbiting_body" : "Earth"
      } ],
      "orbital_data" : {
        "orbit_id" : "15",
        "orbit_determination_date" : "2017-04-06 09:11:52",
        "orbit_uncertainty" : "7",
        "minimum_orbit_intersection" : ".170913",
        "jupiter_tisserand_invariant" : "3.403",
        "epoch_osculation" : "2458000.5",
        "eccentricity" : ".4968506446071543",
        "semi_major_axis" : "2.297392402713922",
        "inclination" : "9.269421585218119",
        "ascending_node_longitude" : "59.72714077746545",
        "orbital_period" : "1271.894817411818",
        "perihelion_distance" : "1.15593150650993",
        "perihelion_argument" : "344.2616223647848",
        "aphelion_distance" : "3.438853298917913",
        "perihelion_time" : "2458413.562264275762",
        "mean_anomaly" : "243.0859178734062",
        "mean_motion" : ".2830422728921601",
        "equinox" : "J2000"
      }
    }, {
      "links" : {
        "self" : "https://api.nasa.gov/neo/rest/v1/neo/3589297?api_key=t0TVs3DtDT2H8Oy2Zy8m2eVrNsAVKAexjcZXUckd"
      },
      "neo_reference_id" : "3589297",
      "name" : "(2011 WM46)",
      "nasa_jpl_url" : "http://ssd.jpl.nasa.gov/sbdb.cgi?sstr=3589297",
      "absolute_magnitude_h" : 19.7,
      "estimated_diameter" : {
        "kilometers" : {
          "estimated_diameter_min" : 0.3051792326,
          "estimated_diameter_max" : 0.6824015094
        },
        "meters" : {
          "estimated_diameter_min" : 305.1792325939,
          "estimated_diameter_max" : 682.4015094011
        },
        "miles" : {
          "estimated_diameter_min" : 0.1896295249,
          "estimated_diameter_max" : 0.4240245083
        },
        "feet" : {
          "estimated_diameter_min" : 1001.2442334633,
          "estimated_diameter_max" : 2238.8501681036
        }
      },
      "is_potentially_hazardous_asteroid" : false,
      "close_approach_data" : [ {
        "close_approach_date" : "2011-11-08",
        "epoch_date_close_approach" : 1320739200000,
        "relative_velocity" : {
          "kilometers_per_second" : "10.38700852",
          "kilometers_per_hour" : "37393.2306718787",
          "miles_per_hour" : "23234.6993583126"
        },
        "miss_distance" : {
          "astronomical" : "0.3738889219",
          "lunar" : "145.442779541",
          "kilometers" : "55932984",
          "miles" : "34755144"
        },
        "orbiting_body" : "Earth"
      } ],
      "orbital_data" : {
        "orbit_id" : "16",
        "orbit_determination_date" : "2017-04-06 08:51:53",
        "orbit_uncertainty" : "6",
        "minimum_orbit_intersection" : ".259028",
        "jupiter_tisserand_invariant" : "3.317",
        "epoch_osculation" : "2458000.5",
        "eccentricity" : ".5115594724920877",
        "semi_major_axis" : "2.323127577452291",
        "inclination" : "20.26758688150704",
        "ascending_node_longitude" : "247.731620794817",
        "orbital_period" : "1293.326026549766",
        "perihelion_distance" : "1.134709659398975",
        "perihelion_argument" : "123.3816483068634",
        "aphelion_distance" : "3.511545495505607",
        "perihelion_time" : "2458410.271716454738",
        "mean_anomaly" : "245.9391871071813",
        "mean_motion" : ".278352088034894",
        "equinox" : "J2000"
      }
    }, {
      "links" : {
        "self" : "https://api.nasa.gov/neo/rest/v1/neo/2307493?api_key=t0TVs3DtDT2H8Oy2Zy8m2eVrNsAVKAexjcZXUckd"
      },
      "neo_reference_id" : "2307493",
      "name" : "307493 (2002 XP90)",
      "nasa_jpl_url" : "http://ssd.jpl.nasa.gov/sbdb.cgi?sstr=2307493",
      "absolute_magnitude_h" : 18.6,
      "estimated_diameter" : {
        "kilometers" : {
          "estimated_diameter_min" : 0.5064714588,
          "estimated_diameter_max" : 1.1325046106
        },
        "meters" : {
          "estimated_diameter_min" : 506.4714588346,
          "estimated_diameter_max" : 1132.5046106177
        },
        "miles" : {
          "estimated_diameter_min" : 0.3147066768,
          "estimated_diameter_max" : 0.7037055224
        },
        "feet" : {
          "estimated_diameter_min" : 1661.651821003,
          "estimated_diameter_max" : 3715.566426699
        }
      },
      "is_potentially_hazardous_asteroid" : false,
      "close_approach_data" : [ {
        "close_approach_date" : "2011-11-08",
        "epoch_date_close_approach" : 1320739200000,
        "relative_velocity" : {
          "kilometers_per_second" : "16.1187024518",
          "kilometers_per_hour" : "58027.3288265552",
          "miles_per_hour" : "36055.9255144782"
        },
        "miss_distance" : {
          "astronomical" : "0.2769493196",
          "lunar" : "107.7332839966",
          "kilometers" : "41431028",
          "miles" : "25744048"
        },
        "orbiting_body" : "Earth"
      } ],
      "orbital_data" : {
        "orbit_id" : "41",
        "orbit_determination_date" : "2017-06-21 06:19:27",
        "orbit_uncertainty" : "0",
        "minimum_orbit_intersection" : ".0519705",
        "jupiter_tisserand_invariant" : "3.444",
        "epoch_osculation" : "2458000.5",
        "eccentricity" : ".5874365334257151",
        "semi_major_axis" : "2.078833739834803",
        "inclination" : "23.11594016451922",
        "ascending_node_longitude" : "78.60008286750406",
        "orbital_period" : "1094.783043389358",
        "perihelion_distance" : ".8576508541378314",
        "perihelion_argument" : "324.1354782122878",
        "aphelion_distance" : "3.300016625531775",
        "perihelion_time" : "2458054.952947593696",
        "mean_anomaly" : "342.094113302083",
        "mean_motion" : ".3288322761060216",
        "equinox" : "J2000"
      }
    } ]
  }
}